[Satellite]
VERSION=1.1
NAME=ZHUHAI-1 01 (CAS 4A)
NICKNAME=ZHUHAI-1 01 (CAS 4A)
TLE1=1 42761U 17034D   17186.28988128  .00000074  00000-0  18243-4 0  9997
TLE2=2 42761  43.0169 187.1368 0006854 101.8431 212.9468 15.08980260  3026
